NORAD_CAT_ID,OBJECT_NAME,OBJECT_TYPE,EPOCH,MEAN_MOTION,ECCENTRICITY,INCLINATION,RA_OF_ASC_NODE,ARG_OF_PERICENTER,MEAN_ANOMALY,BSTAR,MEAN_MOTION_DOT,MEAN_MOTION_DDOT,TLE_LINE0,TLE_LINE1,TLE_LINE2,SEMIMAJOR_AXIS,PERIOD,APOGEE,PERIGEE,DECAYED
52464.0,STARLINK-3904,PAYLOAD,2023-02-23 05:22:17,15.08837195,0.0001083,53.2181,4.1997,96.9167,263.1948,0.00010642,1.406e-05,0.0,0 STARLINK-3904,1 52464U 22049P   23054.22380855  .00001406  00000-0  10642-3 0  9992,2 52464  53.2181   4.1997 0001083  96.9167 263.1948 15.08837195 44764,6917.889,95.438,540.503,539.005,0.0
52464.0,STARLINK-3904,PAYLOAD,2023-02-24 06:48:26,15.08883555,0.0001011,53.2171,359.4425,90.2879,269.8229,0.0017031,0.00026953,0.0,0 STARLINK-3904,1 52464U 22049P   23055.28363977  .00026953  00000-0  17031-2 0  9997,2 52464  53.2171 359.4425 0001011  90.2879 269.8229 15.08883555 44927,6917.747,95.435,540.312,538.913,0.0
52464.0,STARLINK-3904,PAYLOAD,2023-02-24 22:42:18,15.08838457,0.0001417,53.2156,356.4581,107.9138,252.2008,0.00068299,0.00010598,0.0,0 STARLINK-3904,1 52464U 22049P   23055.94604756  .00010598  00000-0  68299-3 0  9994,2 52464  53.2156 356.4581 0001417 107.9138 252.2008 15.08838457 45028,6917.885,95.438,540.73,538.77,0.0
52464.0,STARLINK-3904,PAYLOAD,2023-02-25 05:03:51,15.0882929,0.0001273,53.2174,355.2817,51.5531,308.5575,0.0010128,0.00015863,0.0,0 STARLINK-3904,1 52464U 22049P   23056.21101419  .00015863  00000-0  10128-2 0  9990,2 52464  53.2174 355.2817 0001273  51.5531 308.5575 15.08829290 45061,6917.913,95.438,540.659,538.897,0.0
52464.0,STARLINK-3904,PAYLOAD,2023-02-26 04:54:38,15.08859653,0.0001065,53.2157,350.8172,71.7117,288.3991,0.0012473,0.00019629,0.0,0 STARLINK-3904,1 52464U 22049P   23057.20461302  .00019629  00000-0  12473-2 0  9999,2 52464  53.2157 350.8172 0001065  71.7117 288.3991 15.08859653 45052,6917.82,95.436,540.422,538.949,0.0
52464.0,STARLINK-3904,PAYLOAD,2023-02-26 19:13:06,15.08864615,0.0001145,53.2156,348.1409,76.8503,283.2617,0.00095845,0.00015009,0.0,0 STARLINK-3904,1 52464U 22049P   23057.80076909  .00015009  00000-0  95845-3 0  9993,2 52464  53.2156 348.1409 0001145  76.8503 283.2617 15.08864615 45309,6917.805,95.436,540.462,538.878,0.0
52464.0,STARLINK-3904,PAYLOAD,2023-02-27 04:45:24,15.08888859,0.0001138,53.2155,346.3567,86.2973,273.8149,0.001607,0.00025414,0.0,0 STARLINK-3904,1 52464U 22049P   23058.19819926  .00025414  00000-0  16070-2 0  9993,2 52464  53.2155 346.3567 0001138  86.2973 273.8149 15.08888859 45368,6917.731,95.434,540.383,538.809,0.0
52464.0,STARLINK-3904,PAYLOAD,2023-02-27 19:03:51,15.08907568,0.0001084,53.217,343.6816,89.2154,270.8963,0.0032441,0.00051817,0.0,0 STARLINK-3904,1 52464U 22049P   23058.79435082  .00051817  00000-0  32441-2 0  9992,2 52464  53.2170 343.6816 0001084  89.2154 270.8963 15.08907568 45456,6917.674,95.433,540.289,538.789,0.0
52464.0,STARLINK-3904,PAYLOAD,2023-02-28 04:36:09,15.08909567,0.0001254,53.2169,341.8961,102.6711,257.4421,0.0023867,0.00037974,0.0,0 STARLINK-3904,1 52464U 22049P   23059.19177825  .00037974  00000-0  23867-2 0  9995,2 52464  53.2169 341.8961 0001254 102.6711 257.4421 15.08909567 45511,6917.668,95.433,540.4,538.665,0.0
52464.0,STARLINK-3904,PAYLOAD,2023-02-28 22:05:26,15.08795222,0.0001765,53.2166,338.6252,120.3584,239.7583,0.00039012,5.919e-05,0.0,0 STARLINK-3904,1 52464U 22049P   23059.92044750  .00005919  00000-0  39012-3 0  9990,2 52464  53.2166 338.6252 0001765 120.3584 239.7583 15.08795222 45464,6918.017,95.44,541.103,538.661,0.0
52464.0,STARLINK-3904,PAYLOAD,2023-03-01 04:27:00,15.08787428,0.0001119,53.2164,337.4355,82.533,277.579,-0.00022499,-3.861e-05,0.0,0 STARLINK-3904,1 52464U 22049P   23060.18542008 -.00003861  00000-0 -22499-3 0  9996,2 52464  53.2164 337.4355 0001119  82.5330 277.5790 15.08787428 45665,6918.041,95.441,540.68,539.132,0.0
52464.0,STARLINK-3904,PAYLOAD,2023-03-01 21:56:16,15.08802647,0.0001385,53.217,334.1625,75.0951,285.0195,0.0019798,0.00031329,0.0,0 STARLINK-3904,1 52464U 22049P   23060.91407546  .00031329  00000-0  19798-2 0  9999,2 52464  53.2170 334.1625 0001385  75.0951 285.0195 15.08802647 45616,6917.995,95.44,540.818,538.901,0.0
52464.0,STARLINK-3904,PAYLOAD,2023-03-02 02:42:25,15.08861279,0.0001359,53.2171,333.2745,65.0096,295.1037,0.002297,0.0003648,0.0,0 STARLINK-3904,1 52464U 22049P   23061.11279130  .00036480  00000-0  22970-2 0  9997,2 52464  53.2171 333.2745 0001359  65.0096 295.1037 15.08861279 45804,6917.815,95.436,540.62,538.74,0.0
52464.0,STARLINK-3904,PAYLOAD,2023-03-02 04:17:48,15.08871118,0.0001338,53.2171,332.9766,66.605,293.5083,0.0025909,0.00041223,0.0,0 STARLINK-3904,1 52464U 22049P   23061.17902962  .00041223  00000-0  25909-2 0  9995,2 52464  53.2171 332.9766 0001338  66.6050 293.5083 15.08871118 45656,6917.785,95.436,540.576,538.725,0.0
52464.0,STARLINK-3904,PAYLOAD,2023-03-03 02:33:10,15.08875749,0.0001394,53.2171,328.814,64.7417,295.3719,0.00085085,0.00013292,0.0,0 STARLINK-3904,1 52464U 22049P   23062.10637515  .00013292  00000-0  85085-3 0  9995,2 52464  53.2171 328.8140 0001394  64.7417 295.3719 15.08875749 45957,6917.771,95.435,540.6,538.672,0.0
52464.0,STARLINK-3904,PAYLOAD,2023-03-03 12:05:29,15.0886792,0.0001874,53.2166,327.0301,76.1408,283.9793,0.00071106,0.00011055,0.0,0 STARLINK-3904,1 52464U 22049P   23062.50381692  .00011055  00000-0  71106-3 0  9995,2 52464  53.2166 327.0301 0001874  76.1408 283.9793 15.08867920 46016,6917.795,95.436,540.956,538.364,0.0
52464.0,STARLINK-3904,PAYLOAD,2023-03-03 21:37:48,15.08848953,4.43e-05,53.2167,325.2459,62.467,297.6367,0.0013551,0.0002135,0.0,0 STARLINK-3904,1 52464U 22049P   23062.90125230  .00021350  00000-0  13551-2 0  9991,2 52464  53.2167 325.2459 0000443  62.4670 297.6367 15.08848953 46071,6917.853,95.437,540.024,539.412,0.0
52464.0,STARLINK-3904,PAYLOAD,2023-03-04 03:59:20,15.08872664,9.08e-05,53.2163,324.0555,78.7646,281.3448,0.001382,0.00021795,0.0,0 STARLINK-3904,1 52464U 22049P   23063.16620715  .00021795  00000-0  13820-2 0  9990,2 52464  53.2163 324.0555 0000908  78.7646 281.3448 15.08872664 46111,6917.781,95.435,540.274,539.017,0.0
52464.0,STARLINK-3904,PAYLOAD,2023-03-04 16:42:26,15.08832559,0.0001233,53.2158,321.6731,80.4333,279.6799,0.0019699,0.00031196,0.0,0 STARLINK-3904,1 52464U 22049P   23063.69613929  .00031196  00000-0  19699-2 0  9993,2 52464  53.2158 321.6731 0001233  80.4333 279.6799 15.08832559 46195,6917.903,95.438,540.621,538.915,0.0
52464.0,STARLINK-3904,PAYLOAD,2023-03-05 22:54:46,15.08859234,5.73e-05,53.2163,316.0286,20.9947,339.1069,0.0013625,0.00021474,0.0,0 STARLINK-3904,1 52464U 22049P   23064.95470164  .00021474  00000-0  13625-2 0  9996,2 52464  53.2163 316.0286 0000573  20.9947 339.1069 15.08859234 46382,6917.822,95.436,540.083,539.29,0.0
52464.0,STARLINK-3904,PAYLOAD,2023-03-06 22:45:33,15.08854885,7.34e-05,53.216,311.5669,61.8651,298.2416,0.00074527,0.00011598,0.0,0 STARLINK-3904,1 52464U 22049P   23065.94830083  .00011598  00000-0  74527-3 0  9991,2 52464  53.2160 311.5669 0000734  61.8651 298.2416 15.08854885 46376,6917.835,95.437,540.208,539.192,0.0
52464.0,STARLINK-3904,PAYLOAD,2023-03-07 01:56:19,15.08861228,0.0001123,53.2152,310.9719,72.0912,288.0202,0.00099981,0.00015669,0.0,0 STARLINK-3904,1 52464U 22049P   23066.08077962  .00015669  00000-0  99981-3 0  9990,2 52464  53.2152 310.9719 0001123  72.0912 288.0202 15.08861228 46552,6917.816,95.436,540.457,538.904,0.0
52464.0,STARLINK-3904,PAYLOAD,2023-03-07 16:14:47,15.08853666,0.0002099,53.2139,308.2947,86.5345,273.5887,0.0011963,0.0001881,0.0,0 STARLINK-3904,1 52464U 22049P   23066.67694175  .00018810  00000-0  11963-2 0  9990,2 52464  53.2139 308.2947 0002099  86.5345 273.5887 15.08853666 46648,6917.839,95.437,541.156,538.252,0.0
52464.0,STARLINK-3904,PAYLOAD,2023-03-08 01:47:06,15.08858012,0.0001969,53.2149,306.5104,85.4907,274.631,0.00082459,0.00012866,0.0,0 STARLINK-3904,1 52464U 22049P   23067.07437839  .00012866  00000-0  82459-3 0  9991,2 52464  53.2149 306.5104 0001969  85.4907 274.6310 15.08858012 46702,6917.825,95.436,541.052,538.328,0.0
52464.0,STARLINK-3904,PAYLOAD,2023-03-08 16:05:34,15.08847308,0.000365,53.2079,303.8322,100.8208,259.3195,0.00084812,0.00013239,0.0,0 STARLINK-3904,1 52464U 22049P   23067.67054326  .00013239  00000-0  84812-3 0  9993,2 52464  53.2079 303.8322 0003650 100.8208 259.3195 15.08847308 46797,6917.858,95.437,542.248,537.198,0.0
52464.0,STARLINK-3904,PAYLOAD,2023-03-08 22:27:07,15.0884048,0.0003384,53.2106,302.6439,91.147,268.9909,0.00038843,5.899e-05,0.0,0 STARLINK-3904,1 52464U 22049P   23067.93550552  .00005899  00000-0  38843-3 0  9990,2 52464  53.2106 302.6439 0003384  91.1470 268.9909 15.08840480 46839,6917.879,95.438,542.085,537.403,0.0
52464.0,STARLINK-3904,PAYLOAD,2023-03-09 19:07:08,15.08845625,0.000111,53.215,298.7812,76.2951,283.8165,0.00020681,3.006e-05,0.0,0 STARLINK-3904,1 52464U 22049P   23068.79662428  .00003006  00000-0  20681-3 0  9990,2 52464  53.2150 298.7812 0001110  76.2951 283.8165 15.08845625 46961,6917.863,95.437,540.496,538.96,0.0
52464.0,STARLINK-3904,PAYLOAD,2023-03-09 22:17:54,15.08856113,0.0001082,53.2148,298.1842,72.5702,287.5408,0.0010192,0.00015977,0.0,0 STARLINK-3904,1 52464U 22049P   23068.92910545  .00015977  00000-0  10192-2 0  9996,2 52464  53.2148 298.1842 0001082  72.5702 287.5408 15.08856113 46826,6917.831,95.437,540.445,538.948,0.0
52464.0,STARLINK-3904,PAYLOAD,2023-03-10 07:50:13,15.0884414,0.0001218,53.2153,296.4013,80.2598,279.8532,0.00029758,4.452e-05,0.0,0 STARLINK-3904,1 52464U 22049P   23069.32654640  .00004452  00000-0  29758-3 0  9997,2 52464  53.2153 296.4013 0001218  80.2598 279.8532 15.08844140 47047,6917.868,95.437,540.575,538.89,0.0
52464.0,STARLINK-3904,PAYLOAD,2023-03-10 22:08:42,15.08830708,7.79e-05,53.2151,293.7239,88.2638,271.8444,-0.00010137,-1.9e-05,0.0,0 STARLINK-3904,1 52464U 22049P   23069.92271014 -.00001900  00000-0 -10137-3 0  9991,2 52464  53.2151 293.7239 0000779  88.2638 271.8444 15.08830708 46979,6917.909,95.438,540.313,539.235,0.0
